{"type": "FeatureCollection", "features": [ {"type": "Feature", "properties": {"norad_id": 43010, "name": "FENGYUN 3D", "group": "weather", "lat": -23.771199330160623, "lon": 128.089352793701, "alt_km": 831.2688224184567, "timestamp": "2025-12-11T18:59:45.708498+00:00", "meta": {"OBJECT_NAME": "FENGYUN 3D", "OBJECT_ID": "2017-072A", "EPOCH": "2025-12-11T07:53:22.023168", "MEAN_MOTION": 14.19684111, "ECCENTRICITY": 8.454e-05, "INCLINATION": 98.9894, "RA_OF_ASC_NODE": 311.6177, "ARG_OF_PERICENTER": 186.3632, "MEAN_ANOMALY": 173.7533, "EPHEMERIS_TYPE": 0, "CLASSIFICATION_TYPE": "U", "NORAD_CAT_ID": 43010, "ELEMENT_SET_NO": 999, "REV_AT_EPOCH": 41833, "BSTAR": 0.00027634272, "MEAN_MOTION_DOT": 5.38e-06, "MEAN_MOTION_DDOT": 0}, "tle": {"line1": "1 43010U 17072A   25345.32872712  .00000538  00000+0  27634-3 0  9996", "line2": "2 43010  98.9894 311.6177 0000845 186.3632 173.7533 14.19684111418333"}}, "geometry": {"type": "Point", "coordinates": [128.089352793701, -23.771199330160623]}}, {"type": "Feature", "properties": {"norad_id": 43013, "name": "NOAA 20 (JPSS-1)", "group": "weather", "lat": -3.2389259221113083, "lon": -77.4014903575528, "alt_km": 830.310955963716, "timestamp": "2025-12-11T18:59:45.708510+00:00", "meta": {"OBJECT_NAME": "NOAA 20 (JPSS-1)", "OBJECT_ID": "2017-073A", "EPOCH": "2025-12-11T07:10:11.376192", "MEAN_MOTION": 14.19525242, "ECCENTRICITY": 0.00021505, "INCLINATION": 98.7597, "RA_OF_ASC_NODE": 281.6113, "ARG_OF_PERICENTER": 89.2942, "MEAN_ANOMALY": 270.8481, "EPHEMERIS_TYPE": 0, "CLASSIFICATION_TYPE": "U", "NORAD_CAT_ID": 43013, "ELEMENT_SET_NO": 999, "REV_AT_EPOCH": 41781, "BSTAR": 0.00011222392, "MEAN_MOTION_DOT": 1.93e-06, "MEAN_MOTION_DDOT": 0}, "tle": {"line1": "1 43013U 17073A   25345.29874278  .00000193  00000+0  11222-3 0  9998", "line2": "2 43013  98.7597 281.6113 0002150  89.2942 270.8481 14.19525242417818"}}, "geometry": {"type": "Point", "coordinates": [-77.4014903575528, -3.2389259221113083]}}, {"type": "Feature", "properties": {"norad_id": 43226, "name": "GOES 17", "group": "weather", "lat": -0.07298739727335869, "lon": -83.81171686883638, "alt_km": 35772.06203958272, "timestamp": "2025-12-11T18:59:45.708522+00:00", "meta": {"OBJECT_NAME": "GOES 17", "OBJECT_ID": "2018-022A", "EPOCH": "2025-12-11T04:31:28.917696", "MEAN_MOTION": 1.00271639, "ECCENTRICITY": 0.00033358, "INCLINATION": 0.4562, "RA_OF_ASC_NODE": 89.1254, "ARG_OF_PERICENTER": 187.7299, "MEAN_ANOMALY": 141.6735, "EPHEMERIS_TYPE": 0, "CLASSIFICATION_TYPE": "U", "NORAD_CAT_ID": 43226, "ELEMENT_SET_NO": 999, "REV_AT_EPOCH": 2853, "BSTAR": 0, "MEAN_MOTION_DOT": -1.77e-06, "MEAN_MOTION_DDOT": 0}, "tle": {"line1": "1 43226U 18022A   25345.18852914 -.00000177  00000+0  00000+0 0  9991", "line2": "2 43226   0.4562  89.1254 0003335 187.7299 141.6735  1.00271639 28536"}}, "geometry": {"type": "Point", "coordinates": [-83.81171686883638, -0.07298739727335869]}}, {"type": "Feature", "properties": {"norad_id": 43491, "name": "FENGYUN 2H", "group": "weather", "lat": 0.1826253415046121, "lon": 85.02964101145207, "alt_km": 35797.99753531391, "timestamp": "2025-12-11T18:59:45.708535+00:00", "meta": {"OBJECT_NAME": "FENGYUN 2H", "OBJECT_ID": "2018-050A", "EPOCH": "2025-12-11T01:54:12.536928", "MEAN_MOTION": 1.00271109, "ECCENTRICITY": 0.00029161, "INCLINATION": 2.5468, "RA_OF_ASC_NODE": 81.3429, "ARG_OF_PERICENTER": 165.4782, "MEAN_ANOMALY": 301.137, "EPHEMERIS_TYPE": 0, "CLASSIFICATION_TYPE": "U", "NORAD_CAT_ID": 43491, "ELEMENT_SET_NO": 999, "REV_AT_EPOCH": 2755, "BSTAR": 0, "MEAN_MOTION_DOT": -1.24e-06, "MEAN_MOTION_DDOT": 0}, "tle": {"line1": "1 43491U 18050A   25345.07931177 -.00000124  00000+0  00000+0 0  9995", "line2": "2 43491   2.5468  81.3429 0002916 165.4782 301.1370  1.00271109 27551"}}, "geometry": {"type": "Point", "coordinates": [85.02964101145207, 0.1826253415046121]}}, {"type": "Feature", "properties": {"norad_id": 43689, "name": "METOP-C", "group": "weather", "lat": 47.96535206766148, "lon": -126.65314519223804, "alt_km": 816.0416497149254, "timestamp": "2025-12-11T18:59:45.708547+00:00", "meta": {"OBJECT_NAME": "METOP-C", "OBJECT_ID": "2018-087A", "EPOCH": "2025-12-11T06:33:20.279232", "MEAN_MOTION": 14.21483472, "ECCENTRICITY": 0.0001295, "INCLINATION": 98.6931, "RA_OF_ASC_NODE": 43.0654, "ARG_OF_PERICENTER": 41.0714, "MEAN_ANOMALY": 319.0561, "EPHEMERIS_TYPE": 0, "CLASSIFICATION_TYPE": "U", "NORAD_CAT_ID": 43689, "ELEMENT_SET_NO": 999, "REV_AT_EPOCH": 36813, "BSTAR": 0.00012448456, "MEAN_MOTION_DOT": 2.29e-06, "MEAN_MOTION_DDOT": 0}, "tle": {"line1": "1 43689U 18087A   25345.27315138  .00000229  00000+0  12448-3 0  9997", "line2": "2 43689  98.6931  43.0654 0001295  41.0714 319.0561 14.21483472368136"}}, "geometry": {"type": "Point", "coordinates": [-126.65314519223804, 47.96535206766148]}}, {"type": "Feature", "properties": {"norad_id": 43823, "name": "GEO-KOMPSAT-2A", "group": "weather", "lat": 0.00836957661270784, "lon": 133.93260597502018, "alt_km": 35786.57454431643, "timestamp": "2025-12-11T18:59:45.708558+00:00", "meta": {"OBJECT_NAME": "GEO-KOMPSAT-2A", "OBJECT_ID": "2018-100A", "EPOCH": "2025-12-11T04:54:38.666880", "MEAN_MOTION": 1.00269291, "ECCENTRICITY": 7.05e-06, "INCLINATION": 0.0427, "RA_OF_ASC_NODE": 144.3227, "ARG_OF_PERICENTER": 356.5636, "MEAN_ANOMALY": 141.1986, "EPHEMERIS_TYPE": 0, "CLASSIFICATION_TYPE": "U", "NORAD_CAT_ID": 43823, "ELEMENT_SET_NO": 999, "REV_AT_EPOCH": 2574, "BSTAR": 0, "MEAN_MOTION_DOT": -3.38e-06, "MEAN_MOTION_DDOT": 0}, "tle": {"line1": "1 43823U 18100A   25345.20461420 -.00000338  00000+0  00000+0 0  9991", "line2": "2 43823   0.0427 144.3227 0000070 356.5636 141.1986  1.00269291 25747"}}, "geometry": {"type": "Point", "coordinates": [133.93260597502018, 0.00836957661270784]}}, {"type": "Feature", "properties": {"norad_id": 44387, "name": "METEOR-M2 2", "group": "weather", "lat": -15.622492370545432, "lon": 142.9978735920479, "alt_km": 814.9999087782935, "timestamp": "2025-12-11T18:59:45.708579+00:00", "meta": {"OBJECT_NAME": "METEOR-M2 2", "OBJECT_ID": "2019-038A", "EPOCH": "2025-12-11T06:16:41.333664", "MEAN_MOTION": 14.24291069, "ECCENTRICITY": 0.00011945, "INCLINATION": 98.8975, "RA_OF_ASC_NODE": 324.9721, "ARG_OF_PERICENTER": 150.0017, "MEAN_ANOMALY": 210.123, "EPHEMERIS_TYPE": 0, "CLASSIFICATION_TYPE": "U", "NORAD_CAT_ID": 44387, "ELEMENT_SET_NO": 999, "REV_AT_EPOCH": 33454, "BSTAR": 0.00019550507, "MEAN_MOTION_DOT": 4.06e-06, "MEAN_MOTION_DDOT": 0}, "tle": {"line1": "1 44387U 19038A   25345.26158951  .00000406  00000+0  19551-3 0  9996", "line2": "2 44387  98.8975 324.9721 0001194 150.0017 210.1230 14.24291069334547"}}, "geometry": {"type": "Point", "coordinates": [142.9978735920479, -15.622492370545432]}}, {"type": "Feature", "properties": {"norad_id": 47719, "name": "ARKTIKA-M 1", "group": "weather", "lat": 62.972700926866715, "lon": 166.39048755461442, "alt_km": 39155.55625957791, "timestamp": "2025-12-11T18:59:45.708592+00:00", "meta": {"OBJECT_NAME": "ARKTIKA-M 1", "OBJECT_ID": "2021-016A", "EPOCH": "2025-12-09T14:03:23.859648", "MEAN_MOTION": 2.00631311, "ECCENTRICITY": 0.7202538, "INCLINATION": 63.1769, "RA_OF_ASC_NODE": 84.4506, "ARG_OF_PERICENTER": 269.1116, "MEAN_ANOMALY": 15.6235, "EPHEMERIS_TYPE": 0, "CLASSIFICATION_TYPE": "U", "NORAD_CAT_ID": 47719, "ELEMENT_SET_NO": 999, "REV_AT_EPOCH": 3498, "BSTAR": 0, "MEAN_MOTION_DOT": -6.1e-07, "MEAN_MOTION_DDOT": 0}, "tle": {"line1": "1 47719U 21016A   25343.58569282 -.00000061  00000+0  00000+0 0  9996", "line2": "2 47719  63.1769  84.4506 7202538 269.1116  15.6235  2.00631311 34985"}}, "geometry": {"type": "Point", "coordinates": [166.39048755461442, 62.972700926866715]}}, {"type": "Feature", "properties": {"norad_id": 49008, "name": "FENGYUN 3E", "group": "weather", "lat": 9.744141869196786, "lon": 167.8388274312207, "alt_km": 827.4400775121458, "timestamp": "2025-12-11T18:59:45.708607+00:00", "meta": {"OBJECT_NAME": "FENGYUN 3E", "OBJECT_ID": "2021-062A", "EPOCH": "2025-12-11T06:21:32.830848", "MEAN_MOTION": 14.19880548, "ECCENTRICITY": 5.756e-05, "INCLINATION": 98.7478, "RA_OF_ASC_NODE": 345.8034, "ARG_OF_PERICENTER": 279.113, "MEAN_ANOMALY": 80.9981, "EPHEMERIS_TYPE": 0, "CLASSIFICATION_TYPE": "U", "NORAD_CAT_ID": 49008, "ELEMENT_SET_NO": 999, "REV_AT_EPOCH": 22991, "BSTAR": 0.00016982334, "MEAN_MOTION_DOT": 3.16e-06, "MEAN_MOTION_DDOT": 0}, "tle": {"line1": "1 49008U 21062A   25345.26496332  .00000316  00000+0  16982-3 0  9994", "line2": "2 49008  98.7478 345.8034 0000575 279.1130  80.9981 14.19880548229919"}}, "geometry": {"type": "Point", "coordinates": [167.8388274312207, 9.744141869196786]}}, {"type": "Feature", "properties": {"norad_id": 51850, "name": "GOES 18", "group": "weather", "lat": -0.0013462017241507045, "lon": -131.32541551776075, "alt_km": 35785.42357337477, "timestamp": "2025-12-11T18:59:45.708619+00:00", "meta": {"OBJECT_NAME": "GOES 18", "OBJECT_ID": "2022-021A", "EPOCH": "2025-12-11T04:43:38.646912", "MEAN_MOTION": 1.00271937, "ECCENTRICITY": 6.995e-05, "INCLINATION": 0.0195, "RA_OF_ASC_NODE": 157.0095, "ARG_OF_PERICENTER": 150.9748, "MEAN_ANOMALY": 66.0866, "EPHEMERIS_TYPE": 0, "CLASSIFICATION_TYPE": "U", "NORAD_CAT_ID": 51850, "ELEMENT_SET_NO": 999, "REV_AT_EPOCH": 470, "BSTAR": 0, "MEAN_MOTION_DOT": 1.03e-06, "MEAN_MOTION_DDOT": 0}, "tle": {"line1": "1 51850U 22021A   25345.19697508  .00000103  00000+0  00000+0 0  9992", "line2": "2 51850   0.0195 157.0095 0000699 150.9748  66.0866  1.00271937  4704"}}, "geometry": {"type": "Point", "coordinates": [-131.32541551776075, -0.0013462017241507045]}}]}